[{"OBJECT_NAME":"KUIPER-00108","OBJECT_ID":"2025-171Q","EPOCH":"2026-03-09T10:31:12.671904","MEAN_MOTION":14.79936216,"ECCENTRICITY":8.786e-5,"INCLINATION":51.9022,"RA_OF_ASC_NODE":161.7205,"ARG_OF_PERICENTER":176.7524,"MEAN_ANOMALY":183.3445,"EPHEMERIS_TYPE":0,"CLASSIFICATION_TYPE":"U","NORAD_CAT_ID":65146,"ELEMENT_SET_NO":999,"REV_AT_EPOCH":3282,"BSTAR":0.00024776602,"MEAN_MOTION_DOT":1.668e-5,"MEAN_MOTION_DDOT":0},{"OBJECT_NAME":"ORSTED","OBJECT_ID":"1999-008B","EPOCH":"2026-03-09T17:21:14.075712","MEAN_MOTION":14.51680933,"ECCENTRICITY":0.01330709,"INCLINATION":96.4811,"RA_OF_ASC_NODE":358.8375,"ARG_OF_PERICENTER":145.0719,"MEAN_ANOMALY":215.9303,"EPHEMERIS_TYPE":0,"CLASSIFICATION_TYPE":"U","NORAD_CAT_ID":25635,"ELEMENT_SET_NO":999,"REV_AT_EPOCH":42753,"BSTAR":0.00016967851,"MEAN_MOTION_DOT":7.32e-6,"MEAN_MOTION_DDOT":0}]
